BEGIN
NKAY
US058OMET-TXTsl1.20210331171712_j090jo017578r
JXOBSU
R
U
000
000
0000
20210331171712
NONE
SHIPNAME: KIMBALL
END
BBXX NKAY 31124 99130 11650
43/98 40818 10260 20260 40079 8//// 91200
222// 00270 80230=
MOBOB2 METAR NKAY //000 130650
311200Z 07818KT 11SM SCT/// 26/26 A2976
RMK  SLP:079=